IRIDIUM 64 [+]          
1 25287U 98021C   16218.52393869  .00000110  00000-0  32121-4 0  9992
2 25287  86.3982 355.9083 0002207  97.6130 262.5316 14.34214768959752
IRIDIUM 65 [+]          
1 25288U 98021D   16218.46052057  .00000095  00000-0  26715-4 0  9991
2 25288  86.3981 355.8441 0002026  92.0809 268.0619 14.34214234959766
IRIDIUM 66 [+]          
1 25289U 98021E   16218.40720206  .00000011  00000-0 -32055-5 0  9998
2 25289  86.3980 355.7723 0002142  90.5595 321.7751 14.34214201959759
IRIDIUM 67 [+]          
1 25290U 98021F   16218.47320397  .00000011  00000-0 -32648-5 0  9992
2 25290  86.3982 355.8768 0002169  92.1471 267.9973 14.34213999959775
IRIDIUM 68 [+]          
1 25291U 98021G   16218.47955128  .00000106  00000-0  30801-4 0  9991
2 25291  86.3983 355.9866 0002196  90.7868 269.3579 14.34214477959748
IRIDIUM 69 [-]          
1 25319U 98026A   16218.47489241  .00000075  00000-0  18036-4 0  9996
2 25319  86.3991  18.5327 0001365 149.9751 210.1525 14.38604774957646
IRIDIUM 71 [-]          
1 25320U 98026B   16218.48627857  .00000085  00000-0  20938-4 0  9991
2 25320  86.3976  14.5697 0001163  24.8588 335.2666 14.39018640958066
IRIDIUM 70 [+]          
1 25342U 98032A   16218.44674760  .00000011  00000-0 -32474-5 0  9992
2 25342  86.3987 356.2270 0002093  89.9699 330.0796 14.34214422953842
IRIDIUM 72 [+]          
1 25343U 98032B   16218.50046956  .00000011  00000-0 -32442-5 0  9995
2 25343  86.3981 355.8371 0002146  92.5225 310.1495 14.34214192953858
IRIDIUM 73 [-]          
1 25344U 98032C   16218.48189265  .00000126  00000-0  27814-4 0  9996
2 25344  86.4458 336.3540 0002778  81.5348 278.6171 14.48956865961837
IRIDIUM 74 [S]          
1 25345U 98032D   16218.48364311  .00000102  00000-0  24618-4 0  9997
2 25345  86.4492 356.1844 0002193  98.3208 327.4975 14.42948827957221
IRIDIUM 75 [+]          
1 25346U 98032E   16218.50687263  .00000011  00000-0 -32612-5 0  9999
2 25346  86.3984 356.0755 0002170  92.6319 310.3676 14.34214298954429
IRIDIUM 3 [+]           
1 25431U 98048A   16218.49296484 -.00000043  00000-0 -22364-4 0  9998
2 25431  86.3948  27.6798 0001972  83.3100 328.9863 14.34215351940368
IRIDIUM 76 [+]          
1 25432U 98048B   16218.44282741 -.00000041  00000-0 -21809-4 0  9996
2 25432  86.3946  27.4652 0002166  83.5721 331.8285 14.34215275940345
IRIDIUM 82 [+]          
1 25467U 98051A   16218.33158288  .00000193  00000-0  61769-4 0  9999
2 25467  86.4036 154.2146 0002084  88.5456 271.5978 14.34220767941342
IRIDIUM 81 [+]          
1 25468U 98051B   16218.39503171  .00000169  00000-0  53211-4 0  9997
2 25468  86.4006 153.7979 0002327  85.2826 274.8636 14.34214222937579
IRIDIUM 80 [+]          
1 25469U 98051C   16218.40298656  .00000179  00000-0  56920-4 0  9990
2 25469  86.4009 154.0660 0002438  86.2349  53.1928 14.34214741937576
IRIDIUM 77 [+]          
1 25471U 98051E   16218.40860133  .00000182  00000-0  57945-4 0  9990
2 25471  86.4001 153.6639 0002311  81.3244  54.3522 14.34215037942772
IRIDIUM 2 [-]           
1 25527U 98066A   16218.48477939  .00001652  00000-0  85367-4 0  9996
2 25527  85.5295 218.4190 0010284 156.4685 203.7026 15.15444509970040
IRIDIUM 86 [+]          
1 25528U 98066B   16218.27110456  .00000203  00000-0  65313-4 0  9992
2 25528  86.3977 121.9148 0002127  79.9604 280.1832 14.34219239934083
IRIDIUM 84 [+]          
1 25530U 98066D   16218.30282071  .00000201  00000-0  64606-4 0  9994
2 25530  86.3979 122.0611 0002279  84.3885 275.7570 14.34219185931721
IRIDIUM 83 [+]          
1 25531U 98066E   16218.33453021  .00000209  00000-0  67481-4 0  9995
2 25531  86.3982 122.1603 0002284  84.1935 275.9521 14.34219423929087
IRIDIUM 20 [+]          
1 25577U 98074A   16218.39406268 -.00000040  00000-0 -21297-4 0  9991
2 25577  86.3944  27.4113 0002026  86.2120 273.9307 14.34215325923172
IRIDIUM 11 [+]          
1 25578U 98074B   16218.55883559  .00000005  00000-0 -54445-5 0  9994
2 25578  86.3947  27.5468 0002048  93.0383 331.8545 14.34215473932162
IRIDIUM 14 [+]          
1 25777U 99032A   16218.52796498  .00000103  00000-0  29710-4 0  9996
2 25777  86.3983 355.9017 0002043  89.8890 323.5875 14.34214898909430
IRIDIUM 21 [+]          
1 25778U 99032B   16218.48586302  .00000094  00000-0  26570-4 0  9993
2 25778  86.3982 355.9422 0002308  92.7380 267.4080 14.34214664902866
IRIDIUM 91 [+]          
1 27372U 02005A   16218.20188127  .00000017  00000-0 -10151-5 0  9997
2 27372  86.3943  59.9131 0002111  92.6624  43.8352 14.34216552766331
IRIDIUM 90 [S]          
1 27373U 02005B   16218.31727428  .00000224  00000-0  61137-4 0  9991
2 27373  86.4493 122.1400 0002316  79.1685 280.9777 14.42947604765803
IRIDIUM 94 [+]          
1 27374U 02005C   16218.43125270 -.00000066  00000-0 -30471-4 0  9995
2 27374  86.3945  27.7230 0002508  66.3082 322.1281 14.34214016770695
IRIDIUM 95 [+]          
1 27375U 02005D   16218.14375966 -.00000043  00000-0 -22591-4 0  9992
2 27375  86.3943  59.7194 0002153  81.0849 279.0590 14.34216216765612
IRIDIUM 96 [+]          
1 27376U 02005E   16218.26135041  .00000132  00000-0  40033-4 0  9992
2 27376  86.3978  91.2025 0003547  85.8813 274.2788 14.34215320770837
IRIDIUM 97 [+]          
1 27450U 02031A   16218.22966654  .00000142  00000-0  43511-4 0  9997
2 27450  86.3946  91.0073 0002162  89.9438 270.2006 14.34211364744942
IRIDIUM 98 [+]          
1 27451U 02031B   16218.45261273  .00000186  00000-0  59517-4 0  9999
2 27451  86.4001 154.2172 0002324  86.8335  46.8402 14.34214745746046
